[{"OBJECT_NAME":"STARLINK-30434","OBJECT_ID":"2023-144M","EPOCH":"2026-03-09T22:33:55.373472","MEAN_MOTION":15.26740194,"ECCENTRICITY":0.00011856,"INCLINATION":42.9981,"RA_OF_ASC_NODE":283.9638,"ARG_OF_PERICENTER":285.8456,"MEAN_ANOMALY":74.2264,"EPHEMERIS_TYPE":0,"CLASSIFICATION_TYPE":"U","NORAD_CAT_ID":57875,"ELEMENT_SET_NO":999,"REV_AT_EPOCH":13768,"BSTAR":2.2819805e-5,"MEAN_MOTION_DOT":3.53e-6,"MEAN_MOTION_DDOT":0},{"OBJECT_NAME":"TIANMU-1 12","OBJECT_ID":"2023-205B","EPOCH":"2026-03-09T23:16:21.235872","MEAN_MOTION":15.25812065,"ECCENTRICITY":0.00067383,"INCLINATION":97.3538,"RA_OF_ASC_NODE":91.8946,"ARG_OF_PERICENTER":353.283,"MEAN_ANOMALY":6.8317,"EPHEMERIS_TYPE":0,"CLASSIFICATION_TYPE":"U","NORAD_CAT_ID":58646,"ELEMENT_SET_NO":999,"REV_AT_EPOCH":12237,"BSTAR":0.00029269543,"MEAN_MOTION_DOT":7.417e-5,"MEAN_MOTION_DDOT":0}]
